GLOBALSTAR M024         
1 25883U 99043A   24300.48012426 -.00000109  00000+0 -15548-2 0  9993
2 25883  51.9994 187.9473 0002417  67.7824 102.7102 11.10159655 88904
GLOBALSTAR M027         
1 25884U 99043B   24300.34020158  .00000008  00000+0  27107-2 0  9990
2 25884  52.0205 259.6183 0021522 335.1677  24.8079 11.04371047115400
GLOBALSTAR M053         
1 25886U 99043D   24300.52003750 -.00000044  00000+0  72482-3 0  9999
2 25886  52.0024 359.8607 0003461  50.5319  86.6908 11.27659657 93085
GLOBALSTAR M058         
1 25907U 99049A   24300.50477834  .00000030  00000+0  15456-2 0  9996
2 25907  51.9974  13.1631 0002183 171.5740 188.5132 11.93187826513647
GLOBALSTAR M050         
1 25908U 99049B   24300.35302177 -.00000038  00000+0  57166-3 0  9991
2 25908  52.0018  38.7111 0008442 285.1500 117.1024 12.07442551119943
GLOBALSTAR M033         
1 25909U 99049C   24300.49829860  .00000056  00000+0  14198-2 0  9996
2 25909  51.9910 286.2914 0012766 142.1119 218.0628 12.20289535507214
